{
  "type": "FeatureCollection",
  "features": [
    {
      "type": "Feature",
      "properties": {
        "norad_id": 67131,
        "name": "ZIYUAN 3-04 (ZY 3-04)",
        "group": "last-30-days",
        "lat": -56.79974963837275,
        "lon": -118.39223480876177,
        "alt_km": 509.0896595844688,
        "timestamp": "2025-12-25T03:55:54.957478+00:00",
        "meta_object_name": "ZIYUAN 3-04 (ZY 3-04)",
        "meta_object_id": "2025-300A",
        "meta_epoch": "2025-12-21T18:22:34.187808",
        "meta_mean_motion": 15.21179479,
        "meta_eccentricity": 0.00027623,
        "meta_inclination": 97.4922,
        "meta_ra_of_asc_node": 69.8294,
        "meta_arg_of_pericenter": 167.6924,
        "meta_mean_anomaly": 192.438,
        "meta_ephemeris_type": 0,
        "meta_classification_type": "U",
        "meta_norad_cat_id": 67131,
        "meta_element_set_no": 999,
        "meta_rev_at_epoch": 86,
        "meta_bstar": 6.5769783e-05,
        "meta_mean_motion_dot": 1.396e-05,
        "meta_mean_motion_ddot": 0,
        "tle_line1": "1 67131U 25300A   25355.76567347  .00001396  00000+0  65770-4 0  9990",
        "tle_line2": "2 67131  97.4922  69.8294 0002762 167.6924 192.4380 15.21179479   860"
      },
      "geometry": {
        "type": "Point",
        "coordinates": [
          -118.39223480876177,
          -56.79974963837275
        ]
      }
    },
    {
      "type": "Feature",
      "properties": {
        "norad_id": 67132,
        "name": "CZ-4B R/B",
        "group": "last-30-days",
        "lat": 29.92829090004675,
        "lon": -101.70168865335063,
        "alt_km": 485.9253373829897,
        "timestamp": "2025-12-25T03:55:54.957489+00:00",
        "meta_object_name": "CZ-4B R/B",
        "meta_object_id": "2025-300B",
        "meta_epoch": "2025-12-18T16:13:04.609056",
        "meta_mean_motion": 15.63831828,
        "meta_eccentricity": 0.01741973,
        "meta_inclination": 97.5563,
        "meta_ra_of_asc_node": 66.966,
        "meta_arg_of_pericenter": 9.3582,
        "meta_mean_anomaly": 351.0851,
        "meta_ephemeris_type": 0,
        "meta_classification_type": "U",
        "meta_norad_cat_id": 67132,
        "meta_element_set_no": 999,
        "meta_rev_at_epoch": 40,
        "meta_bstar": 0.00019566238,
        "meta_mean_motion_dot": 0.00040543,
        "meta_mean_motion_ddot": 2.652968e-06,
        "tle_line1": "1 67132U 25300B   25352.67574779  .00040543  26530-5  19566-3 0  9995",
        "tle_line2": "2 67132  97.5563  66.9660 0174197   9.3582 351.0851 15.63831828   407"
      },
      "geometry": {
        "type": "Point",
        "coordinates": [
          -101.70168865335063,
          29.92829090004675
        ]
      }
    },
    {
      "type": "Feature",
      "properties": {
        "norad_id": 67133,
        "name": "KUIPER-00144",
        "group": "last-30-days",
        "lat": 25.827137022660885,
        "lon": -137.12544440400998,
        "alt_km": 452.9399823609401,
        "timestamp": "2025-12-25T03:55:54.957502+00:00",
        "meta_object_name": "KUIPER-00144",
        "meta_object_id": "2025-301A",
        "meta_epoch": "2025-12-23T18:00:02.999808",
        "meta_mean_motion": 15.35319315,
        "meta_eccentricity": 0.0006008,
        "meta_inclination": 51.8693,
        "meta_ra_of_asc_node": 72.0392,
        "meta_arg_of_pericenter": 114.2241,
        "meta_mean_anomaly": 132.5396,
        "meta_ephemeris_type": 0,
        "meta_classification_type": "U",
        "meta_norad_cat_id": 67133,
        "meta_element_set_no": 999,
        "meta_rev_at_epoch": 146,
        "meta_bstar": 0.00092259347,
        "meta_mean_motion_dot": 0.00031898,
        "meta_mean_motion_ddot": 0,
        "tle_line1": "1 67133U 25301A   25357.75003472  .00031898  00000+0  92259-3 0  9999",
        "tle_line2": "2 67133  51.8693  72.0392 0006008 114.2241 132.5396 15.35319315  1462"
      },
      "geometry": {
        "type": "Point",
        "coordinates": [
          -137.12544440400998,
          25.827137022660885
        ]
      }
    },
    {
      "type": "Feature",
      "properties": {
        "norad_id": 67134,
        "name": "KUIPER-00164",
        "group": "last-30-days",
        "lat": 8.013399833516875,
        "lon": -121.17798513864126,
        "alt_km": 456.5554254560957,
        "timestamp": "2025-12-25T03:55:54.957512+00:00",
        "meta_object_name": "KUIPER-00164",
        "meta_object_id": "2025-301B",
        "meta_epoch": "2025-12-23T18:00:02.999808",
        "meta_mean_motion": 15.36016284,
        "meta_eccentricity": 0.00029763,
        "meta_inclination": 51.8714,
        "meta_ra_of_asc_node": 71.9964,
        "meta_arg_of_pericenter": 95.7311,
        "meta_mean_anomaly": 170.8912,
        "meta_ephemeris_type": 0,
        "meta_classification_type": "U",
        "meta_norad_cat_id": 67134,
        "meta_element_set_no": 999,
        "meta_rev_at_epoch": 223,
        "meta_bstar": 0.00091353767,
        "meta_mean_motion_dot": 0.0003229,
        "meta_mean_motion_ddot": 0,
        "tle_line1": "1 67134U 25301B   25357.75003472  .00032290  00000+0  91354-3 0  9992",
        "tle_line2": "2 67134  51.8714  71.9964 0002976  95.7311 170.8912 15.36016284  2236"
      },
      "geometry": {
        "type": "Point",
        "coordinates": [
          -121.17798513864126,
          8.013399833516875
        ]
      }
    },
    {
      "type": "Feature",
      "properties": {
        "norad_id": 67135,
        "name": "KUIPER-00175",
        "group": "last-30-days",
        "lat": -4.444783205768691,
        "lon": -111.36846881076903,
        "alt_km": 458.5267495417784,
        "timestamp": "2025-12-25T03:55:54.957523+00:00",
        "meta_object_name": "KUIPER-00175",
        "meta_object_id": "2025-301C",
        "meta_epoch": "2025-12-23T18:00:02.999808",
        "meta_mean_motion": 15.36506449,
        "meta_eccentricity": 0.00022324,
        "meta_inclination": 51.8732,
        "meta_ra_of_asc_node": 71.962,
        "meta_arg_of_pericenter": 47.6279,
        "meta_mean_anomaly": 232.3641,
        "meta_ephemeris_type": 0,
        "meta_classification_type": "U",
        "meta_norad_cat_id": 67135,
        "meta_element_set_no": 999,
        "meta_rev_at_epoch": 212,
        "meta_bstar": 0.00093098751,
        "meta_mean_motion_dot": 0.00033445,
        "meta_mean_motion_ddot": 0,
        "tle_line1": "1 67135U 25301C   25357.75003472  .00033445  00000+0  93099-3 0  9994",
        "tle_line2": "2 67135  51.8732  71.9620 0002232  47.6279 232.3641 15.36506449  2128"
      },
      "geometry": {
        "type": "Point",
        "coordinates": [
          -111.36846881076903,
          -4.444783205768691
        ]
      }
    },
    {
      "type": "Feature",
      "properties": {
        "norad_id": 67136,
        "name": "KUIPER-00179",
        "group": "last-30-days",
        "lat": 3.0636262882678,
        "lon": -117.25553964722982,
        "alt_km": 457.5801323207088,
        "timestamp": "2025-12-25T03:55:54.957533+00:00",
        "meta_object_name": "KUIPER-00179",
        "meta_object_id": "2025-301D",
        "meta_epoch": "2025-12-23T18:00:02.999808",
        "meta_mean_motion": 15.36215055,
        "meta_eccentricity": 0.00028336,
        "meta_inclination": 51.8727,
        "meta_ra_of_asc_node": 71.9814,
        "meta_arg_of_pericenter": 75.4347,
        "meta_mean_anomaly": 196.4856,
        "meta_ephemeris_type": 0,
        "meta_classification_type": "U",
        "meta_norad_cat_id": 67136,
        "meta_element_set_no": 999,
        "meta_rev_at_epoch": 223,
        "meta_bstar": 0.00090965791,
        "meta_mean_motion_dot": 0.00032358,
        "meta_mean_motion_ddot": 0,
        "tle_line1": "1 67136U 25301D   25357.75003472  .00032358  00000+0  90966-3 0  9997",
        "tle_line2": "2 67136  51.8727  71.9814 0002833  75.4347 196.4856 15.36215055  2230"
      },
      "geometry": {
        "type": "Point",
        "coordinates": [
          -117.25553964722982,
          3.0636262882678
        ]
      }
    },
    {
      "type": "Feature",
      "properties": {
        "norad_id": 67137,
        "name": "KUIPER-00181",
        "group": "last-30-days",
        "lat": 46.23369207356203,
        "lon": -169.82354869119806,
        "alt_km": 450.3780161080376,
        "timestamp": "2025-12-25T03:55:54.957546+00:00",
        "meta_object_name": "KUIPER-00181",
        "meta_object_id": "2025-301E",
        "meta_epoch": "2025-12-23T18:00:02.999808",
        "meta_mean_motion": 15.34313148,
        "meta_eccentricity": 0.00099053,
        "meta_inclination": 51.8632,
        "meta_ra_of_asc_node": 72.0984,
        "meta_arg_of_pericenter": 135.6356,
        "meta_mean_anomaly": 83.338,
        "meta_ephemeris_type": 0,
        "meta_classification_type": "U",
        "meta_norad_cat_id": 67137,
        "meta_element_set_no": 999,
        "meta_rev_at_epoch": 221,
        "meta_bstar": 0.00090623095,
        "meta_mean_motion_dot": 0.0003035,
        "meta_mean_motion_ddot": 0,
        "tle_line1": "1 67137U 25301E   25357.75003472  .00030350  00000+0  90623-3 0  9998",
        "tle_line2": "2 67137  51.8632  72.0984 0009905 135.6356  83.3380 15.34313148  2216"
      },
      "geometry": {
        "type": "Point",
        "coordinates": [
          -169.82354869119806,
          46.23369207356203
        ]
      }
    }
  ]
}